0 GIOVE-B
1 32781U 08020A   13279.78698055  .00000054  00000-0  10000-3 0  7789
2 32781 056.8832 151.3621 0002061 183.1513 176.9666 01.65405352 33788
0 GIOVE-B
1 32781U 08020A   13284.01887484  .00000032  00000-0  10000-3 0  7794
2 32781 056.8839 151.2580 0002042 182.2622 177.8333 01.65405372 33859
0 GIOVE-B
1 32781U 08020A   13287.04168399  .00000035  00000-0  10000-3 0  7802
2 32781 056.8842 151.1837 0002005 183.6433 176.4523 01.65405376 33907
0 GIOVE-B
1 32781U 08020A   13289.45994962  .00000046  00000-0  10000-3 0  7815
2 32781 056.8846 151.1242 0001991 180.6134 179.4915 01.65405367 33941
0 GIOVE-B
1 32781U 08020A   13290.06451983  .00000048  00000-0  10000-3 0  7828
2 32781 056.8848 151.1093 0001902 166.3850 193.7190 01.65405340 33951
0 GIOVE-B
1 32781U 08020A   13293.08734600  .00000042  00000-0  10000-3 0  7838
2 32781 056.8852 151.0349 0001996 166.7425 193.3687 01.65405295 34007
